NORAD_CAT_ID,OBJECT_NAME,OBJECT_TYPE,EPOCH,MEAN_MOTION,ECCENTRICITY,INCLINATION,RA_OF_ASC_NODE,ARG_OF_PERICENTER,MEAN_ANOMALY,BSTAR,MEAN_MOTION_DOT,MEAN_MOTION_DDOT,TLE_LINE0,TLE_LINE1,TLE_LINE2,SEMIMAJOR_AXIS,PERIOD,APOGEE,PERIGEE,DECAYED
53537.0,STARLINK-4120,PAYLOAD,2024-01-03 09:22:49,15.08834558,0.0001463,53.2183,48.8179,98.0408,262.075,-8.689e-05,-1.67e-05,0.0,0 STARLINK-4120,1 53537U 22101L   24003.39085000 -.00001670  00000-0 -86890-4 0  9994,2 53537  53.2183  48.8179 0001463  98.0408 262.0750 15.08834558 75952,6917.897,95.438,540.774,538.75,0.0
53537.0,STARLINK-4120,PAYLOAD,2024-01-04 09:13:35,15.08846137,0.0001514,53.2178,44.3673,113.9489,246.1662,-1.318e-06,-3.09e-06,0.0,0 STARLINK-4120,1 53537U 22101L   24004.38444113 -.00000309  00000-0 -13180-5 0  9999,2 53537  53.2178  44.3673 0001514 113.9489 246.1662 15.08846137 76108,6917.862,95.437,540.774,538.679,0.0
53537.0,STARLINK-4120,PAYLOAD,2024-01-05 09:04:22,15.088466,0.0001497,53.218,39.8995,104.6663,255.4495,8.4607e-05,1.059e-05,0.0,0 STARLINK-4120,1 53537U 22101L   24005.37803963  .00001059  00000-0  84607-4 0  9993,2 53537  53.2180  39.8995 0001497 104.6663 255.4495 15.08846600 76256,6917.86,95.437,540.761,538.69,0.0
53537.0,STARLINK-4120,PAYLOAD,2024-01-06 02:33:37,15.08840459,0.0001633,53.218,36.6303,98.5773,261.5404,-1.6117e-05,-5.45e-06,0.0,0 STARLINK-4120,1 53537U 22101L   24006.10668627 -.00000545  00000-0 -16117-4 0  9993,2 53537  53.2180  36.6303 0001633  98.5773 261.5404 15.08840459 76365,6917.879,95.438,540.874,538.614,0.0
53537.0,STARLINK-4120,PAYLOAD,2024-01-06 07:19:45,15.08907615,0.000148,53.2183,35.7388,104.629,255.4866,-0.00089749,-0.0001457,0.0,0 STARLINK-4120,1 53537U 22101L   24006.30539294 -.00014570  00000-0 -89749-3 0  9995,2 53537  53.2183  35.7388 0001480 104.6290 255.4866 15.08907615 76399,6917.674,95.433,540.563,538.515,0.0
53537.0,STARLINK-4120,PAYLOAD,2024-01-07 02:24:24,15.08838023,0.0001597,53.2178,32.167,98.229,261.8884,-3.1e-05,-7.81e-06,0.0,0 STARLINK-4120,1 53537U 22101L   24007.10028670 -.00000781  00000-0 -31000-4 0  9992,2 53537  53.2178  32.1670 0001597  98.2290 261.8884 15.08838023 76516,6917.886,95.438,540.856,538.647,0.0
53537.0,STARLINK-4120,PAYLOAD,2024-01-07 07:10:34,15.08837324,0.0001616,53.2176,31.2748,98.4685,261.649,-3.6064e-05,-8.62e-06,0.0,0 STARLINK-4120,1 53537U 22101L   24007.29900769 -.00000862  00000-0 -36064-4 0  9995,2 53537  53.2176  31.2748 0001616  98.4685 261.6490 15.08837324 76549,6917.889,95.438,540.871,538.636,0.0
53537.0,STARLINK-4120,PAYLOAD,2024-01-08 08:36:44,15.08841572,0.0001524,53.2177,26.5164,91.0686,269.048,7.7049e-05,9.39e-06,0.0,0 STARLINK-4120,1 53537U 22101L   24008.35884323  .00000939  00000-0  77049-4 0  9991,2 53537  53.2177  26.5164 0001524  91.0686 269.0480 15.08841572 76706,6917.876,95.437,540.795,538.686,0.0
53537.0,STARLINK-4120,PAYLOAD,2024-01-09 00:30:35,15.08836464,0.0001562,53.2178,23.5428,90.8631,269.254,6.597e-05,7.62e-06,0.0,0 STARLINK-4120,1 53537U 22101L   24009.02124752  .00000762  00000-0  65970-4 0  9993,2 53537  53.2178  23.5428 0001562  90.8631 269.2540 15.08836464 76800,6917.891,95.438,540.837,538.676,0.0
53537.0,STARLINK-4120,PAYLOAD,2024-01-09 08:27:31,15.0884165,0.0001593,53.2179,22.056,91.871,268.2465,0.00010219,1.339e-05,0.0,0 STARLINK-4120,1 53537U 22101L   24009.35244364  .00001339  00000-0  10219-3 0  9997,2 53537  53.2179  22.0560 0001593  91.8710 268.2465 15.08841650 76858,6917.875,95.437,540.842,538.638,0.0
53537.0,STARLINK-4120,PAYLOAD,2024-01-10 09:53:41,15.08845292,0.0001583,53.2179,17.2975,95.4725,264.6448,5.8251e-05,6.39e-06,0.0,0 STARLINK-4120,1 53537U 22101L   24010.41228284  .00000639  00000-0  58251-4 0  9990,2 53537  53.2179  17.2975 0001583  95.4725 264.6448 15.08845292 77015,6917.864,95.437,540.824,538.634,0.0
53537.0,STARLINK-4120,PAYLOAD,2024-01-11 09:44:27,15.08853577,0.0001532,53.2181,12.8337,109.5485,250.5673,5.4217e-05,5.75e-06,0.0,0 STARLINK-4120,1 53537U 22101L   24011.40587505  .00000575  00000-0  54217-4 0  9991,2 53537  53.2181  12.8337 0001532 109.5485 250.5673 15.08853577 77160,6917.839,95.437,540.764,538.644,0.0
53537.0,STARLINK-4120,PAYLOAD,2024-01-12 03:13:42,15.0883963,0.0001755,53.2185,9.5575,115.4562,244.6612,4.664e-05,4.54e-06,0.0,0 STARLINK-4120,1 53537U 22101L   24012.13452436  .00000454  00000-0  46640-4 0  9993,2 53537  53.2185   9.5575 0001755 115.4562 244.6612 15.08839630 77273,6917.882,95.438,540.961,538.532,0.0
53537.0,STARLINK-4120,PAYLOAD,2024-01-12 09:35:14,15.08861638,0.00019,53.2202,8.3714,122.1233,237.9944,-0.0003022,-5.097e-05,0.0,0 STARLINK-4120,1 53537U 22101L   24012.39947746 -.00005097  00000-0 -30220-3 0  9990,2 53537  53.2202   8.3714 0001900 122.1233 237.9944 15.08861638 77318,6917.814,95.436,540.994,538.365,0.0
53537.0,STARLINK-4120,PAYLOAD,2024-01-13 03:04:30,15.08836888,0.0001841,53.2204,5.1011,104.7396,255.38,-2.7948e-05,-7.33e-06,0.0,0 STARLINK-4120,1 53537U 22101L   24013.12813144 -.00000733  00000-0 -27948-4 0  9992,2 53537  53.2204   5.1011 0001841 104.7396 255.3800 15.08836888 77421,6917.89,95.438,541.028,538.481,0.0
53537.0,STARLINK-4120,PAYLOAD,2024-01-13 09:26:03,15.08836601,0.00017,53.2186,3.9132,103.6286,256.4896,-2.2715e-05,-6.5e-06,0.0,0 STARLINK-4120,1 53537U 22101L   24013.39309186 -.00000650  00000-0 -22715-4 0  9992,2 53537  53.2186   3.9132 0001700 103.6286 256.4896 15.08836601 77464,6917.891,95.438,540.932,538.58,0.0
53537.0,STARLINK-4120,PAYLOAD,2024-01-14 04:30:40,15.08836298,0.000193,53.2193,0.3456,120.2369,239.8815,1.4283e-05,-6.1e-07,0.0,0 STARLINK-4120,1 53537U 22101L   24014.18797438 -.00000061  00000-0  14283-4 0  9997,2 53537  53.2193   0.3456 0001930 120.2369 239.8815 15.08836298 77585,6917.892,95.438,541.092,538.422,0.0
53537.0,STARLINK-4120,PAYLOAD,2024-01-14 06:06:04,15.0883717,0.0001971,53.2196,0.0483,121.5011,238.6174,2.5703e-05,1.21e-06,0.0,0 STARLINK-4120,1 53537U 22101L   24014.25421381  .00000121  00000-0  25703-4 0  9991,2 53537  53.2196   0.0483 0001971 121.5011 238.6174 15.08837170 77594,6917.889,95.438,541.118,538.391,0.0
53537.0,STARLINK-4120,PAYLOAD,2024-01-15 09:07:36,15.08848068,0.0001742,53.2203,354.9942,96.112,264.0071,0.00018243,2.617e-05,0.0,0 STARLINK-4120,1 53537U 22101L   24015.38028710  .00002617  00000-0  18243-3 0  9997,2 53537  53.2203 354.9942 0001742  96.1120 264.0071 15.08848068 77764,6917.856,95.437,540.926,538.516,0.0
53537.0,STARLINK-4120,PAYLOAD,2024-01-16 08:58:25,15.08839799,0.0002244,53.2193,350.535,91.6167,268.5082,4.9954e-05,5.07e-06,0.0,0 STARLINK-4120,1 53537U 22101L   24016.37390093  .00000507  00000-0  49954-4 0  9993,2 53537  53.2193 350.5350 0002244  91.6167 268.5082 15.08839799 77915,6917.881,95.438,541.298,538.194,0.0
53537.0,STARLINK-4120,PAYLOAD,2024-01-17 05:38:25,15.08849156,0.0001614,53.2189,346.6692,101.6849,258.4324,7.8898e-06,-1.62e-06,0.0,0 STARLINK-4120,1 53537U 22101L   24017.23501250 -.00000162  00000-0  78898-5 0  9996,2 53537  53.2189 346.6692 0001614 101.6849 258.4324 15.08849156 78044,6917.852,95.437,540.834,538.601,0.0
53537.0,STARLINK-4120,PAYLOAD,2024-01-18 03:53:49,15.08847405,0.0001547,53.2181,342.5044,117.1406,242.9744,4.16e-05,3.74e-06,0.0,0 STARLINK-4120,1 53537U 22101L   24018.16237327  .00000374  00000-0  41600-4 0  9994,2 53537  53.2181 342.5044 0001547 117.1406 242.9744 15.08847405 78182,6917.858,95.437,540.793,538.653,0.0
53537.0,STARLINK-4120,PAYLOAD,2024-01-18 07:04:35,15.08849184,0.0001591,53.2186,341.9068,118.3854,241.7298,6.0117e-05,6.69e-06,0.0,0 STARLINK-4120,1 53537U 22101L   24018.29485081  .00000669  00000-0  60117-4 0  9991,2 53537  53.2186 341.9068 0001591 118.3854 241.7298 15.08849184 78205,6917.852,95.437,540.818,538.617,0.0
53537.0,STARLINK-4120,PAYLOAD,2024-01-18 21:23:04,15.08838375,0.0002327,53.2182,339.229,138.9228,221.194,2.808e-05,1.59e-06,0.0,0 STARLINK-4120,1 53537U 22101L   24018.89101873  .00000159  00000-0  28080-4 0  9998,2 53537  53.2182 339.2290 0002327 138.9228 221.1940 15.08838375 78294,6917.885,95.438,541.36,538.141,0.0
53537.0,STARLINK-4120,PAYLOAD,2024-01-19 03:44:35,15.08851809,0.0001541,53.2177,338.0457,110.2135,249.9023,7.5269e-05,9.1e-06,0.0,0 STARLINK-4120,1 53537U 22101L   24019.15597003  .00000910  00000-0  75269-4 0  9998,2 53537  53.2177 338.0457 0001541 110.2135 249.9023 15.08851809 78339,6917.844,95.437,540.775,538.643,0.0
53537.0,STARLINK-4120,PAYLOAD,2024-01-19 21:13:51,15.08840333,0.0001586,53.2173,334.7727,109.1638,250.9526,1.3699e-05,-7e-07,0.0,0 STARLINK-4120,1 53537U 22101L   24019.88461997 -.00000070  00000-0  13699-4 0  9997,2 53537  53.2173 334.7727 0001586 109.1638 250.9526 15.08840333 78444,6917.879,95.438,540.842,538.647,0.0
53537.0,STARLINK-4120,PAYLOAD,2024-01-20 03:35:23,15.08843645,0.0001612,53.218,333.5826,113.8181,246.298,4.6523e-05,4.53e-06,0.0,0 STARLINK-4120,1 53537U 22101L   24020.14957626  .00000453  00000-0  46523-4 0  9993,2 53537  53.2180 333.5826 0001612 113.8181 246.2980 15.08843645 78489,6917.869,95.437,540.849,538.619,0.0
53537.0,STARLINK-4120,PAYLOAD,2024-01-20 06:46:09,15.08844142,0.0001669,53.2178,332.9878,116.5057,243.6107,5.4694e-05,5.83e-06,0.0,0 STARLINK-4120,1 53537U 22101L   24020.28205568  .00000583  00000-0  54694-4 0  9991,2 53537  53.2178 332.9878 0001669 116.5057 243.6107 15.08844142 78508,6917.868,95.437,540.887,538.578,0.0
53537.0,STARLINK-4120,PAYLOAD,2024-01-21 01:50:49,15.08779013,0.0001881,53.2182,329.4192,103.2332,256.887,0.00083612,0.00013022,0.0,0 STARLINK-4120,1 53537U 22101L   24021.07696027  .00013022  00000-0  83612-3 0  9996,2 53537  53.2182 329.4192 0001881 103.2332 256.8870 15.08779013 78628,6918.067,95.441,541.233,538.631,0.0
53537.0,STARLINK-4120,PAYLOAD,2024-01-21 06:36:58,15.08790257,0.0001884,53.218,328.5266,105.3923,254.7278,0.00079811,0.0001242,0.0,0 STARLINK-4120,1 53537U 22101L   24021.27568135  .00012420  00000-0  79811-3 0  9993,2 53537  53.2180 328.5266 0001884 105.3923 254.7278 15.08790257 78655,6918.032,95.441,541.201,538.594,0.0
